     2.100          NAVIGATION                              RINEX VERSION / TYPE
fic2rin                                 01/26/2009 01:08:04 PGM / RUN BY / DATE
                                                            END OF HEADER
 9 09  1 26  0  0  0.0  .369329936802D-04  .204636307899D-11  .000000000000D+00
     .127000000000D+03 -.217812500000D+02  .459376277723D-08 -.491659153863D+00
    -.981613993645D-06  .201639353763D-01  .117346644402D-05  .515365012932D+04
     .864000000000D+05 -.191852450371D-06 -.144053949079D+01  .132247805595D-06
     .974426463425D+00  .365500000000D+03  .145893704908D+01 -.873036365469D-08
    -.400016662300D-10  .100000000000D+01  .151600000000D+04  .000000000000D+00
     .485000000000D+01  .000000000000D+00 -.558793544769D-08  .127000000000D+03
     .792060000000D+05  .400000000000D+01
12 09  1 26  0  0  0.0 -.322252046317D-03  .352429196937D-11  .000000000000D+00
     .880000000000D+02 -.115375000000D+03  .415981613018D-08  .642664959289D+00
    -.612437725067D-05  .315436813980D-02  .940077006817D-05  .515373886490D+04
     .864000000000D+05  .353902578354D-07 -.354168879915D+00 -.465661287308D-07
     .966297889317D+00  .201937500000D+03 -.824073571503D+00 -.788139972051D-08
    -.126076680171D-09  .100000000000D+01  .151600000000D+04  .000000000000D+00
     .240000000000D+01  .000000000000D+00 -.116415321827D-07  .880000000000D+02
     .792060000000D+05  .400000000000D+01
14 09  1 26  0  0  0.0 -.163247808814D-03  .522959453519D-11  .000000000000D+00
     .860000000000D+02  .133750000000D+03  .375337062867D-08  .252965987417D+01
     .684708356857D-05  .441965938080D-02  .616163015366D-05  .515357040977D+04
     .864000000000D+05  .521540641785D-07 -.241803973381D+01 -.707805156708D-07
     .988963492082D+00  .273718750000D+03 -.210009786379D+01 -.771996442465D-08
     .238581366443D-09  .100000000000D+01  .151600000000D+04  .000000000000D+00
     .240000000000D+01  .000000000000D+00 -.931322574615D-08  .860000000000D+02
     .792060000000D+05  .400000000000D+01
15 09  1 26  0  0  0.0 -.247515272349D-03 -.545696821064D-11  .000000000000D+00
     .340000000000D+02  .123906250000D+03  .451197365610D-08  .306928383428D+01
     .654347240925D-05  .138087233063D-02  .673346221447D-05  .515357821083D+04
     .864000000000D+05 -.223517417908D-07 -.246667572249D+01  .596046447754D-07
     .957145875276D+00  .248500000000D+03 -.777175624599D+00 -.809069415274D-08
     .208222959036D-09  .100000000000D+01  .151600000000D+04  .000000000000D+00
     .240000000000D+01  .000000000000D+00 -.977888703346D-08  .340000000000D+02
     .792060000000D+05  .400000000000D+01
16 09  1 26  0  0  0.0  .793933868408D-04 -.272848410532D-11  .000000000000D+00
     .660000000000D+02 -.124406250000D+03  .403445376548D-08 -.188293118008D+01
    -.641681253910D-05  .499078969005D-02  .100284814835D-04  .515375949097D+04
     .864000000000D+05 -.502914190292D-07 -.337417931017D+00  .558793544769D-08
     .967838876020D+00  .192687500000D+03 -.388661879842D+00 -.780246786125D-08
    -.171435712414D-10  .100000000000D+01  .151600000000D+04  .000000000000D+00
     .240000000000D+01  .000000000000D+00 -.977888703346D-08  .660000000000D+02
     .792060000000D+05  .400000000000D+01
17 09  1 26  0  0  0.0  .452012754977D-04  .102318153949D-11  .000000000000D+00
     .116000000000D+03  .104687500000D+02  .440161191623D-08 -.296812557994D+01
     .635161995888D-06  .416091771331D-02  .961311161518D-05  .515363554001D+04
     .864000000000D+05 -.223517417908D-07  .703966292896D+00 -.651925802231D-07
     .959745122288D+00  .194062500000D+03 -.276284349934D+01 -.775960893314D-08
     .674313802162D-09  .100000000000D+01  .151600000000D+04  .000000000000D+00
     .340000000000D+01  .000000000000D+00 -.102445483208D-07  .116000000000D+03
     .792060000000D+05  .400000000000D+01
18 09  1 26  0  0  0.0 -.895676203072D-04  .363797880709D-11  .000000000000D+00
     .360000000000D+02  .289375000000D+02  .470126725522D-08 -.175991839256D+01
     .146217644215D-05  .990598381031D-02  .105965882540D-04  .515375277519D+04
     .864000000000D+05  .147148966789D-06  .281514927507D+01 -.726431608200D-07
     .944381167483D+00  .166218750000D+03 -.243663045434D+01 -.782746890264D-08
    -.372872674501D-09  .100000000000D+01  .151600000000D+04  .000000000000D+00
     .240000000000D+01  .000000000000D+00 -.107102096081D-07  .360000000000D+02
     .792060000000D+05  .400000000000D+01
19 09  1 26  0  0  0.0  .333650968969D-04 -.454747350886D-12  .000000000000D+00
     .440000000000D+02  .130000000000D+02  .462626413104D-08  .257282200667D+01
     .713393092155D-06  .508473813534D-02  .877305865288D-05  .515377869225D+04
     .864000000000D+05  .186264514923D-07  .760364167945D+00  .130385160446D-06
     .957426694105D+00  .206562500000D+03 -.392302907391D+00 -.790568644643D-08
     .657170230921D-09  .100000000000D+01  .151600000000D+04  .000000000000D+00
     .240000000000D+01  .000000000000D+00 -.144354999065D-07  .440000000000D+02
     .792060000000D+05  .400000000000D+01
20 09  1 26  0  0  0.0  .926395878196D-04 -.113686837722D-11  .000000000000D+00
     .890000000000D+02  .143125000000D+02  .483520140555D-08 -.161041742513D+01
     .754371285439D-06  .388777139597D-02  .109020620584D-04  .515369034386D+04
     .864000000000D+05  .614672899246D-07  .276141724199D+01  .391155481339D-07
     .943937395673D+00  .162125000000D+03  .130864558070D+01 -.797604652007D-08
    -.545737017852D-09  .100000000000D+01  .151600000000D+04  .000000000000D+00
     .340000000000D+01  .000000000000D+00 -.651925802231D-08  .890000000000D+02
     .792060000000D+05  .400000000000D+01
21 09  1 26  0  0  0.0  .321553088725D-04 -.181898940355D-11  .000000000000D+00
     .760000000000D+02 -.123750000000D+02  .567309344997D-08 -.488237774686D+00
    -.504776835442D-06  .145740365842D-01  .451318919659D-05  .515363711739D+04
     .864000000000D+05  .169500708580D-06  .175662752030D+01  .219792127609D-06
     .934193316741D+00  .276375000000D+03 -.265170679928D+01 -.871643450306D-08
    -.164649715464D-09  .100000000000D+01  .151600000000D+04  .000000000000D+00
     .240000000000D+01  .000000000000D+00 -.116415321827D-07  .760000000000D+02
     .792060000000D+05  .400000000000D+01
22 09  1 26  0  0  0.0  .206130556762D-03 -.682121026330D-12  .000000000000D+00
     .270000000000D+02  .279062500000D+02  .474769776067D-08 -.289700775150D+01
     .142864882946D-05  .492206565104D-02  .108182430267D-04  .515366856384D+04
     .864000000000D+05  .130385160446D-06  .282110067597D+01 -.167638063431D-07
     .942042176524D+00  .160281250000D+03 -.181629336562D+01 -.788461414011D-08
    -.469305262734D-09  .100000000000D+01  .151600000000D+04  .000000000000D+00
     .340000000000D+01  .000000000000D+00 -.181607902050D-07  .270000000000D+02
     .792060000000D+05  .400000000000D+01
23 09  1 26  0  0  0.0  .385817606002D-03  .795807864051D-12  .000000000000D+00
     .350000000000D+02  .134843750000D+03  .421410410578D-08  .202412699333D+01
     .714883208275D-05  .577274512034D-02  .716000795364D-05  .515365608978D+04
     .864000000000D+05  .614672899246D-07 -.244841555123D+01  .782310962677D-07
     .971026280468D+00  .246875000000D+03  .288117979711D+01 -.798711840983D-08
     .187507810453D-09  .100000000000D+01  .151600000000D+04  .000000000000D+00
     .240000000000D+01  .000000000000D+00 -.200234353542D-07  .350000000000D+02
     .792060000000D+05  .400000000000D+01
24 09  1 26  0  0  0.0  .160434283316D-03  .295585778076D-11  .000000000000D+00
     .660000000000D+02 -.149062500000D+02  .522664628223D-08 -.186649542273D+01
    -.758096575737D-06  .699892453849D-02  .498630106449D-05  .515366029167D+04
     .864000000000D+05 -.234693288803D-06  .178671215265D+01 -.428408384323D-07
     .950841991574D+00  .279781250000D+03 -.639908565617D+00 -.834999066777D-08
    -.184650548579D-09  .100000000000D+01  .151600000000D+04  .000000000000D+00
     .340000000000D+01  .000000000000D+00 -.139698386192D-08  .660000000000D+02
     .792060000000D+05  .400000000000D+01
25 09  1 26  0  0  0.0  .199136789888D-03  .256932253251D-10  .000000000000D+00
     .104000000000D+03 -.546875000000D+01  .469912430882D-08 -.133927216860D+01
    -.162050127983D-06  .117956222966D-01  .564381480217D-06  .515367315674D+04
     .864000000000D+05 -.279396772385D-06 -.150040754211D+01  .106170773506D-06
     .967803150097D+00  .373750000000D+03 -.123455354178D+01 -.860571560545D-08
    -.567880797372D-10  .100000000000D+01  .151600000000D+04  .000000000000D+00
     .485000000000D+01  .000000000000D+00 -.745058059692D-08  .104000000000D+03
     .792060000000D+05  .400000000000D+01
26 09  1 26  0  0  0.0  .393707305193D-04  .329691829393D-11  .000000000000D+00
     .350000000000D+02  .120656250000D+03  .379122934849D-08  .158447482442D+01
     .611692667007D-05  .194953022292D-01  .698305666447D-05  .515364565659D+04
     .864000000000D+05 -.476837158203D-06 -.240136978376D+01 -.763684511185D-07
     .993241774061D+00  .265437500000D+03  .966833558716D+00 -.788139972051D-08
     .196079596074D-09  .100000000000D+01  .151600000000D+04  .000000000000D+00
     .240000000000D+01  .000000000000D+00 -.605359673500D-08  .350000000000D+02
     .792060000000D+05  .400000000000D+01
27 09  1 26  0  0  0.0  .193249434233D-04  .318323145621D-11  .000000000000D+00
     .440000000000D+02 -.126250000000D+02  .429017870316D-08 -.214778961199D+01
    -.424683094025D-06  .210831847508D-01 -.465661287308D-06  .515519279861D+04
     .864000000000D+05  .307336449623D-06 -.146457680454D+01  .117346644402D-06
     .972462775321D+00  .386687500000D+03 -.165744509337D+01 -.797818946647D-08
     .207151485834D-10  .100000000000D+01  .151600000000D+04  .000000000000D+00
     .240000000000D+01  .000000000000D+00 -.465661287308D-08  .440000000000D+02
     .792060000000D+05  .400000000000D+01
